[{"OBJECT_NAME":"STARLINK-5186","OBJECT_ID":"2022-141W","EPOCH":"2026-03-09T04:38:38.285088","MEAN_MOTION":15.08842672,"ECCENTRICITY":0.0001251,"INCLINATION":53.2186,"RA_OF_ASC_NODE":6.279,"ARG_OF_PERICENTER":97.5717,"MEAN_ANOMALY":262.5417,"EPHEMERIS_TYPE":0,"CLASSIFICATION_TYPE":"U","NORAD_CAT_ID":54177,"ELEMENT_SET_NO":999,"REV_AT_EPOCH":18578,"BSTAR":8.0596e-5,"MEAN_MOTION_DOT":9.95e-6,"MEAN_MOTION_DDOT":0},{"OBJECT_NAME":"LEMUR-2-MARHISYAM","OBJECT_ID":"2024-149BW","EPOCH":"2026-03-09T17:46:07.876416","MEAN_MOTION":15.0901552,"ECCENTRICITY":0.00035778,"INCLINATION":97.6912,"RA_OF_ASC_NODE":151.2662,"ARG_OF_PERICENTER":107.3271,"MEAN_ANOMALY":252.8349,"EPHEMERIS_TYPE":0,"CLASSIFICATION_TYPE":"U","NORAD_CAT_ID":60536,"ELEMENT_SET_NO":999,"REV_AT_EPOCH":8547,"BSTAR":0.00082973442,"MEAN_MOTION_DOT":0.00013075,"MEAN_MOTION_DDOT":0}]
