STARLINK-5186           
1 54177U 22141W   26068.19349867  .00000995  00000+0  80596-4 0  9997
2 54177  53.2186   6.2790 0001251  97.5717 262.5417 15.08842672185789
LEMUR-2-MARHISYAM       
1 60536U 24149BW  26068.74036894  .00013075  00000+0  82973-3 0  9990
2 60536  97.6912 151.2662 0003578 107.3271 252.8349 15.09015520 85478
